[
  {
    "code": "AF",
    "name": "Afghanistan",
    "emoji": "ğŸ‡¦ğŸ‡«",
    "unicode": "U+1F1E6 U+1F1EB",
    "image": "https://cdn.jsdelivr.net/npm/country-flag-emoji-json@2.0.0/dist/images/AF.svg",
    "flag": "ğŸ‡¦ğŸ‡«",
    "dial_code": "+93"
  },
  {
    "code": "AL",
    "name": "Albania",
    "emoji": "ğŸ‡¦ğŸ‡±",
    "unicode": "U+1F1E6 U+1F1F1",
    "image": "https://cdn.jsdelivr.net/npm/country-flag-emoji-json@2.0.0/dist/images/AL.svg",
    "flag": "ğŸ‡¦ğŸ‡±",
    "dial_code": "+355"
  },
  {
    "code": "DZ",
    "name": "Algeria",
    "emoji": "ğŸ‡©ğŸ‡¿",
    "unicode": "U+1F1E9 U+1F1FF",
    "image": "https://cdn.jsdelivr.net/npm/country-flag-emoji-json@2.0.0/dist/images/DZ.svg",
    "flag": "ğŸ‡©ğŸ‡¿",
    "dial_code": "+213"
  },
  {
    "code": "AS",
    "name": "American Samoa",
    "emoji": "ğŸ‡¦ğŸ‡¸",
    "unicode": "U+1F1E6 U+1F1F8",
    "image": "https://cdn.jsdelivr.net/npm/country-flag-emoji-json@2.0.0/dist/images/AS.svg",
    "flag": "ğŸ‡¦ğŸ‡¸",
    "dial_code": "+1684"
  },
  {
    "code": "AD",
    "name": "Andorra",
    "emoji": "ğŸ‡¦ğŸ‡©",
    "unicode": "U+1F1E6 U+1F1E9",
    "image": "https://cdn.jsdelivr.net/npm/country-flag-emoji-json@2.0.0/dist/images/AD.svg",
    "flag": "ğŸ‡¦ğŸ‡©",
    "dial_code": "+"
  },
  {
    "code": "AO",
    "name": "Angola",
    "emoji": "ğŸ‡¦ğŸ‡´",
    "unicode": "U+1F1E6 U+1F1F4",
    "image": "https://cdn.jsdelivr.net/npm/country-flag-emoji-json@2.0.0/dist/images/AO.svg",
    "flag": "ğŸ‡¦ğŸ‡´"
  },
  {
    "code": "AI",
    "name": "Anguilla",
    "emoji": "ğŸ‡¦ğŸ‡®",
    "unicode": "U+1F1E6 U+1F1EE",
    "image": "https://cdn.jsdelivr.net/npm/country-flag-emoji-json@2.0.0/dist/images/AI.svg",
    "flag": "ğŸ‡¦ğŸ‡®",
    "dial_code": "+1264"
  },
  {
    "code": "AQ",
    "name": "Antarctica",
    "emoji": "ğŸ‡¦ğŸ‡¶",
    "unicode": "U+1F1E6 U+1F1F6",
    "image": "https://cdn.jsdelivr.net/npm/country-flag-emoji-json@2.0.0/dist/images/AQ.svg",
    "flag": "ğŸ‡¦ğŸ‡¶",
    "dial_code": "+672"
  },
  {
    "code": "AG",
    "name": "Antigua & Barbuda",
    "emoji": "ğŸ‡¦ğŸ‡¬",
    "unicode": "U+1F1E6 U+1F1EC",
    "image": "https://cdn.jsdelivr.net/npm/country-flag-emoji-json@2.0.0/dist/images/AG.svg"
  },
  {
    "code": "AR",
    "name": "Argentina",
    "emoji": "ğŸ‡¦ğŸ‡·",
    "unicode": "U+1F1E6 U+1F1F7",
    "image": "https://cdn.jsdelivr.net/npm/country-flag-emoji-json@2.0.0/dist/images/AR.svg",
    "flag": "ğŸ‡¦ğŸ‡·",
    "dial_code": "+54"
  },
  {
    "code": "AM",
    "name": "Armenia",
    "emoji": "ğŸ‡¦ğŸ‡²",
    "unicode": "U+1F1E6 U+1F1F2",
    "image": "https://cdn.jsdelivr.net/npm/country-flag-emoji-json@2.0.0/dist/images/AM.svg",
    "flag": "ğŸ‡¦ğŸ‡²",
    "dial_code": "+374"
  },
  {
    "code": "AW",
    "name": "Aruba",
    "emoji": "ğŸ‡¦ğŸ‡¼",
    "unicode": "U+1F1E6 U+1F1FC",
    "image": "https://cdn.jsdelivr.net/npm/country-flag-emoji-json@2.0.0/dist/images/AW.svg",
    "flag": "ğŸ‡¦ğŸ‡¼",
    "dial_code": "+297"
  },
  {
    "code": "AC",
    "name": "Ascension Island",
    "emoji": "ğŸ‡¦ğŸ‡¨",
    "unicode": "U+1F1E6 U+1F1E8",
    "image": "https://cdn.jsdelivr.net/npm/country-flag-emoji-json@2.0.0/dist/images/AC.svg",
    "flag": "ğŸ‡¦ğŸ‡¨",
    "dial_code": "+"
  },
  {
    "code": "AU",
    "name": "Australia",
    "emoji": "ğŸ‡¦ğŸ‡º",
    "unicode": "U+1F1E6 U+1F1FA",
    "image": "https://cdn.jsdelivr.net/npm/country-flag-emoji-json@2.0.0/dist/images/AU.svg",
    "flag": "ğŸ‡¦ğŸ‡º",
    "dial_code": "+61"
  },
  {
    "code": "AT",
    "name": "Austria",
    "emoji": "ğŸ‡¦ğŸ‡¹",
    "unicode": "U+1F1E6 U+1F1F9",
    "image": "https://cdn.jsdelivr.net/npm/country-flag-emoji-json@2.0.0/dist/images/AT.svg",
    "flag": "ğŸ‡¦ğŸ‡¹",
    "dial_code": "+43"
  },
  {
    "code": "AZ",
    "name": "Azerbaijan",
    "emoji": "ğŸ‡¦ğŸ‡¿",
    "unicode": "U+1F1E6 U+1F1FF",
    "image": "https://cdn.jsdelivr.net/npm/country-flag-emoji-json@2.0.0/dist/images/AZ.svg",
    "flag": "ğŸ‡¦ğŸ‡¿",
    "dial_code": "+994"
  },
  {
    "code": "BS",
    "name": "Bahamas",
    "emoji": "ğŸ‡§ğŸ‡¸",
    "unicode": "U+1F1E7 U+1F1F8",
    "image": "https://cdn.jsdelivr.net/npm/country-flag-emoji-json@2.0.0/dist/images/BS.svg",
    "flag": "ğŸ‡§ğŸ‡¸",
    "dial_code": "+1242"
  },
  {
    "code": "BH",
    "name": "Bahrain",
    "emoji": "ğŸ‡§ğŸ‡­",
    "unicode": "U+1F1E7 U+1F1ED",
    "image": "https://cdn.jsdelivr.net/npm/country-flag-emoji-json@2.0.0/dist/images/BH.svg",
    "flag": "ğŸ‡§ğŸ‡­",
    "dial_code": "+973"
  },
  {
    "code": "BD",
    "name": "Bangladesh",
    "emoji": "ğŸ‡§ğŸ‡©",
    "unicode": "U+1F1E7 U+1F1E9",
    "image": "https://cdn.jsdelivr.net/npm/country-flag-emoji-json@2.0.0/dist/images/BD.svg",
    "flag": "ğŸ‡§ğŸ‡©",
    "dial_code": "+880"
  },
  {
    "code": "BB",
    "name": "Barbados",
    "emoji": "ğŸ‡§ğŸ‡§",
    "unicode": "U+1F1E7 U+1F1E7",
    "image": "https://cdn.jsdelivr.net/npm/country-flag-emoji-json@2.0.0/dist/images/BB.svg",
    "flag": "ğŸ‡§ğŸ‡§",
    "dial_code": "+1246"
  },
  {
    "code": "BY",
    "name": "Belarus",
    "emoji": "ğŸ‡§ğŸ‡¾",
    "unicode": "U+1F1E7 U+1F1FE",
    "image": "https://cdn.jsdelivr.net/npm/country-flag-emoji-json@2.0.0/dist/images/BY.svg",
    "flag": "ğŸ‡§ğŸ‡¾",
    "dial_code": "+375"
  },
  {
    "code": "BE",
    "name": "Belgium",
    "emoji": "ğŸ‡§ğŸ‡ª",
    "unicode": "U+1F1E7 U+1F1EA",
    "image": "https://cdn.jsdelivr.net/npm/country-flag-emoji-json@2.0.0/dist/images/BE.svg",
    "flag": "ğŸ‡§ğŸ‡ª",
    "dial_code": "+32"
  },
  {
    "code": "BZ",
    "name": "Belize",
    "emoji": "ğŸ‡§ğŸ‡¿",
    "unicode": "U+1F1E7 U+1F1FF",
    "image": "https://cdn.jsdelivr.net/npm/country-flag-emoji-json@2.0.0/dist/images/BZ.svg",
    "flag": "ğŸ‡§ğŸ‡¿",
    "dial_code": "+501"
  },
  {
    "code": "BJ",
    "name": "Benin",
    "emoji": "ğŸ‡§ğŸ‡¯",
    "unicode": "U+1F1E7 U+1F1EF",
    "image": "https://cdn.jsdelivr.net/npm/country-flag-emoji-json@2.0.0/dist/images/BJ.svg",
    "flag": "ğŸ‡§ğŸ‡¯",
    "dial_code": "+229"
  },
  {
    "code": "BM",
    "name": "Bermuda",
    "emoji": "ğŸ‡§ğŸ‡²",
    "unicode": "U+1F1E7 U+1F1F2",
    "image": "https://cdn.jsdelivr.net/npm/country-flag-emoji-json@2.0.0/dist/images/BM.svg",
    "flag": "ğŸ‡§ğŸ‡²",
    "dial_code": "+1441"
  },
  {
    "code": "BT",
    "name": "Bhutan",
    "emoji": "ğŸ‡§ğŸ‡¹",
    "unicode": "U+1F1E7 U+1F1F9",
    "image": "https://cdn.jsdelivr.net/npm/country-flag-emoji-json@2.0.0/dist/images/BT.svg",
    "flag": "ğŸ‡§ğŸ‡¹",
    "dial_code": "+975"
  },
  {
    "code": "BO",
    "name": "Bolivia",
    "emoji": "ğŸ‡§ğŸ‡´",
    "unicode": "U+1F1E7 U+1F1F4",
    "image": "https://cdn.jsdelivr.net/npm/country-flag-emoji-json@2.0.0/dist/images/BO.svg"
  },
  {
    "code": "BA",
    "name": "Bosnia & Herzegovina",
    "emoji": "ğŸ‡§ğŸ‡¦",
    "unicode": "U+1F1E7 U+1F1E6",
    "image": "https://cdn.jsdelivr.net/npm/country-flag-emoji-json@2.0.0/dist/images/BA.svg"
  },
  {
    "code": "BW",
    "name": "Botswana",
    "emoji": "ğŸ‡§ğŸ‡¼",
    "unicode": "U+1F1E7 U+1F1FC",
    "image": "https://cdn.jsdelivr.net/npm/country-flag-emoji-json@2.0.0/dist/images/BW.svg",
    "flag": "ğŸ‡§ğŸ‡¼",
    "dial_code": "+267"
  },
  {
    "code": "BV",
    "name": "Bouvet Island",
    "emoji": "ğŸ‡§ğŸ‡»",
    "unicode": "U+1F1E7 U+1F1FB",
    "image": "https://cdn.jsdelivr.net/npm/country-flag-emoji-json@2.0.0/dist/images/BV.svg",
    "flag": "ğŸ‡§ğŸ‡»",
    "dial_code": "+47"
  },
  {
    "code": "BR",
    "name": "Brazil",
    "emoji": "ğŸ‡§ğŸ‡·",
    "unicode": "U+1F1E7 U+1F1F7",
    "image": "https://cdn.jsdelivr.net/npm/country-flag-emoji-json@2.0.0/dist/images/BR.svg",
    "flag": "ğŸ‡§ğŸ‡·",
    "dial_code": "+55"
  },
  {
    "code": "IO",
    "name": "British Indian Ocean Territory",
    "emoji": "ğŸ‡®ğŸ‡´",
    "unicode": "U+1F1EE U+1F1F4",
    "image": "https://cdn.jsdelivr.net/npm/country-flag-emoji-json@2.0.0/dist/images/IO.svg",
    "flag": "ğŸ‡®ğŸ‡´",
    "dial_code": "+246"
  },
  {
    "code": "VG",
    "name": "British Virgin Islands",
    "emoji": "ğŸ‡»ğŸ‡¬",
    "unicode": "U+1F1FB U+1F1EC",
    "image": "https://cdn.jsdelivr.net/npm/country-flag-emoji-json@2.0.0/dist/images/VG.svg"
  },
  {
    "code": "BN",
    "name": "Brunei",
    "emoji": "ğŸ‡§ğŸ‡³",
    "unicode": "U+1F1E7 U+1F1F3",
    "image": "https://cdn.jsdelivr.net/npm/country-flag-emoji-json@2.0.0/dist/images/BN.svg"
  },
  {
    "code": "BG",
    "name": "Bulgaria",
    "emoji": "ğŸ‡§ğŸ‡¬",
    "unicode": "U+1F1E7 U+1F1EC",
    "image": "https://cdn.jsdelivr.net/npm/country-flag-emoji-json@2.0.0/dist/images/BG.svg",
    "flag": "ğŸ‡§ğŸ‡¬",
    "dial_code": "+359"
  },
  {
    "code": "BF",
    "name": "Burkina Faso",
    "emoji": "ğŸ‡§ğŸ‡«",
    "unicode": "U+1F1E7 U+1F1EB",
    "image": "https://cdn.jsdelivr.net/npm/country-flag-emoji-json@2.0.0/dist/images/BF.svg",
    "flag": "ğŸ‡§ğŸ‡«",
    "dial_code": "+226"
  },
  {
    "code": "BI",
    "name": "Burundi",
    "emoji": "ğŸ‡§ğŸ‡®",
    "unicode": "U+1F1E7 U+1F1EE",
    "image": "https://cdn.jsdelivr.net/npm/country-flag-emoji-json@2.0.0/dist/images/BI.svg",
    "flag": "ğŸ‡§ğŸ‡®",
    "dial_code": "+257"
  },
  {
    "code": "KH",
    "name": "Cambodia",
    "emoji": "ğŸ‡°ğŸ‡­",
    "unicode": "U+1F1F0 U+1F1ED",
    "image": "https://cdn.jsdelivr.net/npm/country-flag-emoji-json@2.0.0/dist/images/KH.svg",
    "flag": "ğŸ‡°ğŸ‡­",
    "dial_code": "+855"
  },
  {
    "code": "CM",
    "name": "Cameroon",
    "emoji": "ğŸ‡¨ğŸ‡²",
    "unicode": "U+1F1E8 U+1F1F2",
    "image": "https://cdn.jsdelivr.net/npm/country-flag-emoji-json@2.0.0/dist/images/CM.svg",
    "flag": "ğŸ‡¨ğŸ‡²",
    "dial_code": "+237"
  },
  {
    "code": "CA",
    "name": "Canada",
    "emoji": "ğŸ‡¨ğŸ‡¦",
    "unicode": "U+1F1E8 U+1F1E6",
    "image": "https://cdn.jsdelivr.net/npm/country-flag-emoji-json@2.0.0/dist/images/CA.svg",
    "flag": "ğŸ‡¨ğŸ‡¦",
    "dial_code": "+1"
  },
  {
    "code": "IC",
    "name": "Canary Islands",
    "emoji": "ğŸ‡®ğŸ‡¨",
    "unicode": "U+1F1EE U+1F1E8",
    "image": "https://cdn.jsdelivr.net/npm/country-flag-emoji-json@2.0.0/dist/images/IC.svg"
  },
  {
    "code": "CV",
    "name": "Cape Verde",
    "emoji": "ğŸ‡¨ğŸ‡»",
    "unicode": "U+1F1E8 U+1F1FB",
    "image": "https://cdn.jsdelivr.net/npm/country-flag-emoji-json@2.0.0/dist/images/CV.svg",
    "flag": "ğŸ‡¨ğŸ‡»",
    "dial_code": "+238"
  },
  {
    "code": "BQ",
    "name": "Caribbean Netherlands",
    "emoji": "ğŸ‡§ğŸ‡¶",
    "unicode": "U+1F1E7 U+1F1F6",
    "image": "https://cdn.jsdelivr.net/npm/country-flag-emoji-json@2.0.0/dist/images/BQ.svg"
  },
  {
    "code": "KY",
    "name": "Cayman Islands",
    "emoji": "ğŸ‡°ğŸ‡¾",
    "unicode": "U+1F1F0 U+1F1FE",
    "image": "https://cdn.jsdelivr.net/npm/country-flag-emoji-json@2.0.0/dist/images/KY.svg",
    "flag": "ğŸ‡°ğŸ‡¾",
    "dial_code": "+345"
  },
  {
    "code": "CF",
    "name": "Central African Republic",
    "emoji": "ğŸ‡¨ğŸ‡«",
    "unicode": "U+1F1E8 U+1F1EB",
    "image": "https://cdn.jsdelivr.net/npm/country-flag-emoji-json@2.0.0/dist/images/CF.svg",
    "flag": "ğŸ‡¨ğŸ‡«",
    "dial_code": "+236"
  },
  {
    "code": "EA",
    "name": "Ceuta & Melilla",
    "emoji": "ğŸ‡ªğŸ‡¦",
    "unicode": "U+1F1EA U+1F1E6",
    "image": "https://cdn.jsdelivr.net/npm/country-flag-emoji-json@2.0.0/dist/images/EA.svg"
  },
  {
    "code": "TD",
    "name": "Chad",
    "emoji": "ğŸ‡¹ğŸ‡©",
    "unicode": "U+1F1F9 U+1F1E9",
    "image": "https://cdn.jsdelivr.net/npm/country-flag-emoji-json@2.0.0/dist/images/TD.svg",
    "flag": "ğŸ‡¹ğŸ‡©",
    "dial_code": "+235"
  },
  {
    "code": "CL",
    "name": "Chile",
    "emoji": "ğŸ‡¨ğŸ‡±",
    "unicode": "U+1F1E8 U+1F1F1",
    "image": "https://cdn.jsdelivr.net/npm/country-flag-emoji-json@2.0.0/dist/images/CL.svg",
    "flag": "ğŸ‡¨ğŸ‡±",
    "dial_code": "+56"
  },
  {
    "code": "CN",
    "name": "China",
    "emoji": "ğŸ‡¨ğŸ‡³",
    "unicode": "U+1F1E8 U+1F1F3",
    "image": "https://cdn.jsdelivr.net/npm/country-flag-emoji-json@2.0.0/dist/images/CN.svg",
    "flag": "ğŸ‡¨ğŸ‡³",
    "dial_code": "+86"
  },
  {
    "code": "CX",
    "name": "Christmas Island",
    "emoji": "ğŸ‡¨ğŸ‡½",
    "unicode": "U+1F1E8 U+1F1FD",
    "image": "https://cdn.jsdelivr.net/npm/country-flag-emoji-json@2.0.0/dist/images/CX.svg",
    "flag": "ğŸ‡¨ğŸ‡½",
    "dial_code": "+61"
  },
  {
    "code": "CP",
    "name": "Clipperton Island",
    "emoji": "ğŸ‡¨ğŸ‡µ",
    "unicode": "U+1F1E8 U+1F1F5",
    "image": "https://cdn.jsdelivr.net/npm/country-flag-emoji-json@2.0.0/dist/images/CP.svg"
  },
  {
    "code": "CC",
    "name": "Cocos (Keeling) Islands",
    "emoji": "ğŸ‡¨ğŸ‡¨",
    "unicode": "U+1F1E8 U+1F1E8",
    "image": "https://cdn.jsdelivr.net/npm/country-flag-emoji-json@2.0.0/dist/images/CC.svg",
    "flag": "ğŸ‡¨ğŸ‡¨",
    "dial_code": "+61"
  },
  {
    "code": "CO",
    "name": "Colombia",
    "emoji": "ğŸ‡¨ğŸ‡´",
    "unicode": "U+1F1E8 U+1F1F4",
    "image": "https://cdn.jsdelivr.net/npm/country-flag-emoji-json@2.0.0/dist/images/CO.svg",
    "flag": "ğŸ‡¨ğŸ‡´",
    "dial_code": "+57"
  },
  {
    "code": "KM",
    "name": "Comoros",
    "emoji": "ğŸ‡°ğŸ‡²",
    "unicode": "U+1F1F0 U+1F1F2",
    "image": "https://cdn.jsdelivr.net/npm/country-flag-emoji-json@2.0.0/dist/images/KM.svg",
    "flag": "ğŸ‡°ğŸ‡²",
    "dial_code": "+269"
  },
  {
    "code": "CG",
    "name": "Congo - Brazzaville",
    "emoji": "ğŸ‡¨ğŸ‡¬",
    "unicode": "U+1F1E8 U+1F1EC",
    "image": "https://cdn.jsdelivr.net/npm/country-flag-emoji-json@2.0.0/dist/images/CG.svg"
  },
  {
    "code": "CD",
    "name": "Congo - Kinshasa",
    "emoji": "ğŸ‡¨ğŸ‡©",
    "unicode": "U+1F1E8 U+1F1E9",
    "image": "https://cdn.jsdelivr.net/npm/country-flag-emoji-json@2.0.0/dist/images/CD.svg"
  },
  {
    "code": "CK",
    "name": "Cook Islands",
    "emoji": "ğŸ‡¨ğŸ‡°",
    "unicode": "U+1F1E8 U+1F1F0",
    "image": "https://cdn.jsdelivr.net/npm/country-flag-emoji-json@2.0.0/dist/images/CK.svg",
    "flag": "ğŸ‡¨ğŸ‡°",
    "dial_code": "+682"
  },
  {
    "code": "CR",
    "name": "Costa Rica",
    "emoji": "ğŸ‡¨ğŸ‡·",
    "unicode": "U+1F1E8 U+1F1F7",
    "image": "https://cdn.jsdelivr.net/npm/country-flag-emoji-json@2.0.0/dist/images/CR.svg",
    "flag": "ğŸ‡¨ğŸ‡·",
    "dial_code": "+506"
  },
  {
    "code": "HR",
    "name": "Croatia",
    "emoji": "ğŸ‡­ğŸ‡·",
    "unicode": "U+1F1ED U+1F1F7",
    "image": "https://cdn.jsdelivr.net/npm/country-flag-emoji-json@2.0.0/dist/images/HR.svg",
    "flag": "ğŸ‡­ğŸ‡·",
    "dial_code": "+385"
  },
  {
    "code": "CU",
    "name": "Cuba",
    "emoji": "ğŸ‡¨ğŸ‡º",
    "unicode": "U+1F1E8 U+1F1FA",
    "image": "https://cdn.jsdelivr.net/npm/country-flag-emoji-json@2.0.0/dist/images/CU.svg",
    "flag": "ğŸ‡¨ğŸ‡º",
    "dial_code": "+53"
  },
  {
    "code": "CW",
    "name": "CuraÃ§ao",
    "emoji": "ğŸ‡¨ğŸ‡¼",
    "unicode": "U+1F1E8 U+1F1FC",
    "image": "https://cdn.jsdelivr.net/npm/country-flag-emoji-json@2.0.0/dist/images/CW.svg"
  },
  {
    "code": "CY",
    "name": "Cyprus",
    "emoji": "ğŸ‡¨ğŸ‡¾",
    "unicode": "U+1F1E8 U+1F1FE",
    "image": "https://cdn.jsdelivr.net/npm/country-flag-emoji-json@2.0.0/dist/images/CY.svg",
    "flag": "ğŸ‡¨ğŸ‡¾",
    "dial_code": "+357"
  },
  {
    "code": "CZ",
    "name": "Czechia",
    "emoji": "ğŸ‡¨ğŸ‡¿",
    "unicode": "U+1F1E8 U+1F1FF",
    "image": "https://cdn.jsdelivr.net/npm/country-flag-emoji-json@2.0.0/dist/images/CZ.svg"
  },
  {
    "code": "CI",
    "name": "CÃ´te dâ€™Ivoire",
    "emoji": "ğŸ‡¨ğŸ‡®",
    "unicode": "U+1F1E8 U+1F1EE",
    "image": "https://cdn.jsdelivr.net/npm/country-flag-emoji-json@2.0.0/dist/images/CI.svg"
  },
  {
    "code": "DK",
    "name": "Denmark",
    "emoji": "ğŸ‡©ğŸ‡°",
    "unicode": "U+1F1E9 U+1F1F0",
    "image": "https://cdn.jsdelivr.net/npm/country-flag-emoji-json@2.0.0/dist/images/DK.svg",
    "flag": "ğŸ‡©ğŸ‡°",
    "dial_code": "+45"
  },
  {
    "code": "DG",
    "name": "Diego Garcia",
    "emoji": "ğŸ‡©ğŸ‡¬",
    "unicode": "U+1F1E9 U+1F1EC",
    "image": "https://cdn.jsdelivr.net/npm/country-flag-emoji-json@2.0.0/dist/images/DG.svg"
  },
  {
    "code": "DJ",
    "name": "Djibouti",
    "emoji": "ğŸ‡©ğŸ‡¯",
    "unicode": "U+1F1E9 U+1F1EF",
    "image": "https://cdn.jsdelivr.net/npm/country-flag-emoji-json@2.0.0/dist/images/DJ.svg",
    "flag": "ğŸ‡©ğŸ‡¯",
    "dial_code": "+253"
  },
  {
    "code": "DM",
    "name": "Dominica",
    "emoji": "ğŸ‡©ğŸ‡²",
    "unicode": "U+1F1E9 U+1F1F2",
    "image": "https://cdn.jsdelivr.net/npm/country-flag-emoji-json@2.0.0/dist/images/DM.svg",
    "flag": "ğŸ‡©ğŸ‡²",
    "dial_code": "+1767"
  },
  {
    "code": "DO",
    "name": "Dominican Republic",
    "emoji": "ğŸ‡©ğŸ‡´",
    "unicode": "U+1F1E9 U+1F1F4",
    "image": "https://cdn.jsdelivr.net/npm/country-flag-emoji-json@2.0.0/dist/images/DO.svg",
    "flag": "ğŸ‡©ğŸ‡´",
    "dial_code": "+1849"
  },
  {
    "code": "EC",
    "name": "Ecuador",
    "emoji": "ğŸ‡ªğŸ‡¨",
    "unicode": "U+1F1EA U+1F1E8",
    "image": "https://cdn.jsdelivr.net/npm/country-flag-emoji-json@2.0.0/dist/images/EC.svg",
    "flag": "ğŸ‡ªğŸ‡¨",
    "dial_code": "+593"
  },
  {
    "code": "EG",
    "name": "Egypt",
    "emoji": "ğŸ‡ªğŸ‡¬",
    "unicode": "U+1F1EA U+1F1EC",
    "image": "https://cdn.jsdelivr.net/npm/country-flag-emoji-json@2.0.0/dist/images/EG.svg",
    "flag": "ğŸ‡ªğŸ‡¬",
    "dial_code": "+20"
  },
  {
    "code": "SV",
    "name": "El Salvador",
    "emoji": "ğŸ‡¸ğŸ‡»",
    "unicode": "U+1F1F8 U+1F1FB",
    "image": "https://cdn.jsdelivr.net/npm/country-flag-emoji-json@2.0.0/dist/images/SV.svg",
    "flag": "ğŸ‡¸ğŸ‡»",
    "dial_code": "+503"
  },
  {
    "code": "ENGLAND",
    "name": "England",
    "emoji": "ğŸ´ó §ó ¢ó ¥ó ®ó §ó ¿",
    "unicode": "U+1F3F4 U+E0067 U+E0062 U+E0065 U+E006E U+E0067 U+E007F",
    "image": "https://cdn.jsdelivr.net/npm/country-flag-emoji-json@2.0.0/dist/images/ENGLAND.svg"
  },
  {
    "code": "GQ",
    "name": "Equatorial Guinea",
    "emoji": "ğŸ‡¬ğŸ‡¶",
    "unicode": "U+1F1EC U+1F1F6",
    "image": "https://cdn.jsdelivr.net/npm/country-flag-emoji-json@2.0.0/dist/images/GQ.svg",
    "flag": "ğŸ‡¬ğŸ‡¶",
    "dial_code": "+240"
  },
  {
    "code": "ER",
    "name": "Eritrea",
    "emoji": "ğŸ‡ªğŸ‡·",
    "unicode": "U+1F1EA U+1F1F7",
    "image": "https://cdn.jsdelivr.net/npm/country-flag-emoji-json@2.0.0/dist/images/ER.svg",
    "flag": "ğŸ‡ªğŸ‡·",
    "dial_code": "+291"
  },
  {
    "code": "EE",
    "name": "Estonia",
    "emoji": "ğŸ‡ªğŸ‡ª",
    "unicode": "U+1F1EA U+1F1EA",
    "image": "https://cdn.jsdelivr.net/npm/country-flag-emoji-json@2.0.0/dist/images/EE.svg",
    "flag": "ğŸ‡ªğŸ‡ª",
    "dial_code": "+372"
  },
  {
    "code": "SZ",
    "name": "Eswatini",
    "emoji": "ğŸ‡¸ğŸ‡¿",
    "unicode": "U+1F1F8 U+1F1FF",
    "image": "https://cdn.jsdelivr.net/npm/country-flag-emoji-json@2.0.0/dist/images/SZ.svg",
    "flag": "ğŸ‡¸ğŸ‡¿",
    "dial_code": "+268"
  },
  {
    "code": "ET",
    "name": "Ethiopia",
    "emoji": "ğŸ‡ªğŸ‡¹",
    "unicode": "U+1F1EA U+1F1F9",
    "image": "https://cdn.jsdelivr.net/npm/country-flag-emoji-json@2.0.0/dist/images/ET.svg",
    "flag": "ğŸ‡ªğŸ‡¹",
    "dial_code": "+251"
  },
  {
    "code": "EU",
    "name": "European Union",
    "emoji": "ğŸ‡ªğŸ‡º",
    "unicode": "U+1F1EA U+1F1FA",
    "image": "https://cdn.jsdelivr.net/npm/country-flag-emoji-json@2.0.0/dist/images/EU.svg"
  },
  {
    "code": "FK",
    "name": "Falkland Islands",
    "emoji": "ğŸ‡«ğŸ‡°",
    "unicode": "U+1F1EB U+1F1F0",
    "image": "https://cdn.jsdelivr.net/npm/country-flag-emoji-json@2.0.0/dist/images/FK.svg"
  },
  {
    "code": "FO",
    "name": "Faroe Islands",
    "emoji": "ğŸ‡«ğŸ‡´",
    "unicode": "U+1F1EB U+1F1F4",
    "image": "https://cdn.jsdelivr.net/npm/country-flag-emoji-json@2.0.0/dist/images/FO.svg",
    "flag": "ğŸ‡«ğŸ‡´",
    "dial_code": "+298"
  },
  {
    "code": "FJ",
    "name": "Fiji",
    "emoji": "ğŸ‡«ğŸ‡¯",
    "unicode": "U+1F1EB U+1F1EF",
    "image": "https://cdn.jsdelivr.net/npm/country-flag-emoji-json@2.0.0/dist/images/FJ.svg",
    "flag": "ğŸ‡«ğŸ‡¯",
    "dial_code": "+679"
  },
  {
    "code": "FI",
    "name": "Finland",
    "emoji": "ğŸ‡«ğŸ‡®",
    "unicode": "U+1F1EB U+1F1EE",
    "image": "https://cdn.jsdelivr.net/npm/country-flag-emoji-json@2.0.0/dist/images/FI.svg",
    "flag": "ğŸ‡«ğŸ‡®",
    "dial_code": "+358"
  },
  {
    "code": "FR",
    "name": "France",
    "emoji": "ğŸ‡«ğŸ‡·",
    "unicode": "U+1F1EB U+1F1F7",
    "image": "https://cdn.jsdelivr.net/npm/country-flag-emoji-json@2.0.0/dist/images/FR.svg",
    "flag": "ğŸ‡«ğŸ‡·",
    "dial_code": "+33"
  },
  {
    "code": "GF",
    "name": "French Guiana",
    "emoji": "ğŸ‡¬ğŸ‡«",
    "unicode": "U+1F1EC U+1F1EB",
    "image": "https://cdn.jsdelivr.net/npm/country-flag-emoji-json@2.0.0/dist/images/GF.svg",
    "flag": "ğŸ‡¬ğŸ‡«",
    "dial_code": "+594"
  },
  {
    "code": "PF",
    "name": "French Polynesia",
    "emoji": "ğŸ‡µğŸ‡«",
    "unicode": "U+1F1F5 U+1F1EB",
    "image": "https://cdn.jsdelivr.net/npm/country-flag-emoji-json@2.0.0/dist/images/PF.svg",
    "flag": "ğŸ‡µğŸ‡«",
    "dial_code": "+689"
  },
  {
    "code": "TF",
    "name": "French Southern Territories",
    "emoji": "ğŸ‡¹ğŸ‡«",
    "unicode": "U+1F1F9 U+1F1EB",
    "image": "https://cdn.jsdelivr.net/npm/country-flag-emoji-json@2.0.0/dist/images/TF.svg",
    "flag": "ğŸ‡¹ğŸ‡«",
    "dial_code": "+262"
  },
  {
    "code": "GA",
    "name": "Gabon",
    "emoji": "ğŸ‡¬ğŸ‡¦",
    "unicode": "U+1F1EC U+1F1E6",
    "image": "https://cdn.jsdelivr.net/npm/country-flag-emoji-json@2.0.0/dist/images/GA.svg",
    "flag": "ğŸ‡¬ğŸ‡¦",
    "dial_code": "+241"
  },
  {
    "code": "GM",
    "name": "Gambia",
    "emoji": "ğŸ‡¬ğŸ‡²",
    "unicode": "U+1F1EC U+1F1F2",
    "image": "https://cdn.jsdelivr.net/npm/country-flag-emoji-json@2.0.0/dist/images/GM.svg",
    "flag": "ğŸ‡¬ğŸ‡²",
    "dial_code": "+220"
  },
  {
    "code": "GE",
    "name": "Georgia",
    "emoji": "ğŸ‡¬ğŸ‡ª",
    "unicode": "U+1F1EC U+1F1EA",
    "image": "https://cdn.jsdelivr.net/npm/country-flag-emoji-json@2.0.0/dist/images/GE.svg",
    "flag": "ğŸ‡¬ğŸ‡ª",
    "dial_code": "+995"
  },
  {
    "code": "DE",
    "name": "Germany",
    "emoji": "ğŸ‡©ğŸ‡ª",
    "unicode": "U+1F1E9 U+1F1EA",
    "image": "https://cdn.jsdelivr.net/npm/country-flag-emoji-json@2.0.0/dist/images/DE.svg",
    "flag": "ğŸ‡©ğŸ‡ª",
    "dial_code": "+49"
  },
  {
    "code": "GH",
    "name": "Ghana",
    "emoji": "ğŸ‡¬ğŸ‡­",
    "unicode": "U+1F1EC U+1F1ED",
    "image": "https://cdn.jsdelivr.net/npm/country-flag-emoji-json@2.0.0/dist/images/GH.svg",
    "flag": "ğŸ‡¬ğŸ‡­",
    "dial_code": "+233"
  },
  {
    "code": "GI",
    "name": "Gibraltar",
    "emoji": "ğŸ‡¬ğŸ‡®",
    "unicode": "U+1F1EC U+1F1EE",
    "image": "https://cdn.jsdelivr.net/npm/country-flag-emoji-json@2.0.0/dist/images/GI.svg",
    "flag": "ğŸ‡¬ğŸ‡®",
    "dial_code": "+350"
  },
  {
    "code": "GR",
    "name": "Greece",
    "emoji": "ğŸ‡¬ğŸ‡·",
    "unicode": "U+1F1EC U+1F1F7",
    "image": "https://cdn.jsdelivr.net/npm/country-flag-emoji-json@2.0.0/dist/images/GR.svg",
    "flag": "ğŸ‡¬ğŸ‡·",
    "dial_code": "+30"
  },
  {
    "code": "GL",
    "name": "Greenland",
    "emoji": "ğŸ‡¬ğŸ‡±",
    "unicode": "U+1F1EC U+1F1F1",
    "image": "https://cdn.jsdelivr.net/npm/country-flag-emoji-json@2.0.0/dist/images/GL.svg",
    "flag": "ğŸ‡¬ğŸ‡±",
    "dial_code": "+299"
  },
  {
    "code": "GD",
    "name": "Grenada",
    "emoji": "ğŸ‡¬ğŸ‡©",
    "unicode": "U+1F1EC U+1F1E9",
    "image": "https://cdn.jsdelivr.net/npm/country-flag-emoji-json@2.0.0/dist/images/GD.svg",
    "flag": "ğŸ‡¬ğŸ‡©",
    "dial_code": "+1473"
  },
  {
    "code": "GP",
    "name": "Guadeloupe",
    "emoji": "ğŸ‡¬ğŸ‡µ",
    "unicode": "U+1F1EC U+1F1F5",
    "image": "https://cdn.jsdelivr.net/npm/country-flag-emoji-json@2.0.0/dist/images/GP.svg",
    "flag": "ğŸ‡¬ğŸ‡µ",
    "dial_code": "+590"
  },
  {
    "code": "GU",
    "name": "Guam",
    "emoji": "ğŸ‡¬ğŸ‡º",
    "unicode": "U+1F1EC U+1F1FA",
    "image": "https://cdn.jsdelivr.net/npm/country-flag-emoji-json@2.0.0/dist/images/GU.svg",
    "flag": "ğŸ‡¬ğŸ‡º",
    "dial_code": "+1671"
  },
  {
    "code": "GT",
    "name": "Guatemala",
    "emoji": "ğŸ‡¬ğŸ‡¹",
    "unicode": "U+1F1EC U+1F1F9",
    "image": "https://cdn.jsdelivr.net/npm/country-flag-emoji-json@2.0.0/dist/images/GT.svg",
    "flag": "ğŸ‡¬ğŸ‡¹",
    "dial_code": "+502"
  },
  {
    "code": "GG",
    "name": "Guernsey",
    "emoji": "ğŸ‡¬ğŸ‡¬",
    "unicode": "U+1F1EC U+1F1EC",
    "image": "https://cdn.jsdelivr.net/npm/country-flag-emoji-json@2.0.0/dist/images/GG.svg",
    "flag": "ğŸ‡¬ğŸ‡¬",
    "dial_code": "+44"
  },
  {
    "code": "GN",
    "name": "Guinea",
    "emoji": "ğŸ‡¬ğŸ‡³",
    "unicode": "U+1F1EC U+1F1F3",
    "image": "https://cdn.jsdelivr.net/npm/country-flag-emoji-json@2.0.0/dist/images/GN.svg",
    "flag": "ğŸ‡¬ğŸ‡³",
    "dial_code": "+224"
  },
  {
    "code": "GW",
    "name": "Guinea-Bissau",
    "emoji": "ğŸ‡¬ğŸ‡¼",
    "unicode": "U+1F1EC U+1F1FC",
    "image": "https://cdn.jsdelivr.net/npm/country-flag-emoji-json@2.0.0/dist/images/GW.svg",
    "flag": "ğŸ‡¬ğŸ‡¼",
    "dial_code": "+245"
  },
  {
    "code": "GY",
    "name": "Guyana",
    "emoji": "ğŸ‡¬ğŸ‡¾",
    "unicode": "U+1F1EC U+1F1FE",
    "image": "https://cdn.jsdelivr.net/npm/country-flag-emoji-json@2.0.0/dist/images/GY.svg",
    "flag": "ğŸ‡¬ğŸ‡¾",
    "dial_code": "+592"
  },
  {
    "code": "HT",
    "name": "Haiti",
    "emoji": "ğŸ‡­ğŸ‡¹",
    "unicode": "U+1F1ED U+1F1F9",
    "image": "https://cdn.jsdelivr.net/npm/country-flag-emoji-json@2.0.0/dist/images/HT.svg",
    "flag": "ğŸ‡­ğŸ‡¹",
    "dial_code": "+509"
  },
  {
    "code": "HM",
    "name": "Heard & McDonald Islands",
    "emoji": "ğŸ‡­ğŸ‡²",
    "unicode": "U+1F1ED U+1F1F2",
    "image": "https://cdn.jsdelivr.net/npm/country-flag-emoji-json@2.0.0/dist/images/HM.svg"
  },
  {
    "code": "HN",
    "name": "Honduras",
    "emoji": "ğŸ‡­ğŸ‡³",
    "unicode": "U+1F1ED U+1F1F3",
    "image": "https://cdn.jsdelivr.net/npm/country-flag-emoji-json@2.0.0/dist/images/HN.svg",
    "flag": "ğŸ‡­ğŸ‡³",
    "dial_code": "+504"
  },
  {
    "code": "HK",
    "name": "Hong Kong SAR China",
    "emoji": "ğŸ‡­ğŸ‡°",
    "unicode": "U+1F1ED U+1F1F0",
    "image": "https://cdn.jsdelivr.net/npm/country-flag-emoji-json@2.0.0/dist/images/HK.svg"
  },
  {
    "code": "HU",
    "name": "Hungary",
    "emoji": "ğŸ‡­ğŸ‡º",
    "unicode": "U+1F1ED U+1F1FA",
    "image": "https://cdn.jsdelivr.net/npm/country-flag-emoji-json@2.0.0/dist/images/HU.svg",
    "flag": "ğŸ‡­ğŸ‡º",
    "dial_code": "+36"
  },
  {
    "code": "IS",
    "name": "Iceland",
    "emoji": "ğŸ‡®ğŸ‡¸",
    "unicode": "U+1F1EE U+1F1F8",
    "image": "https://cdn.jsdelivr.net/npm/country-flag-emoji-json@2.0.0/dist/images/IS.svg",
    "flag": "ğŸ‡®ğŸ‡¸",
    "dial_code": "+354"
  },
  {
    "code": "IN",
    "name": "India",
    "emoji": "ğŸ‡®ğŸ‡³",
    "unicode": "U+1F1EE U+1F1F3",
    "image": "https://cdn.jsdelivr.net/npm/country-flag-emoji-json@2.0.0/dist/images/IN.svg",
    "flag": "ğŸ‡®ğŸ‡³",
    "dial_code": "+91"
  },
  {
    "code": "ID",
    "name": "Indonesia",
    "emoji": "ğŸ‡®ğŸ‡©",
    "unicode": "U+1F1EE U+1F1E9",
    "image": "https://cdn.jsdelivr.net/npm/country-flag-emoji-json@2.0.0/dist/images/ID.svg",
    "flag": "ğŸ‡®ğŸ‡©",
    "dial_code": "+62"
  },
  {
    "code": "IR",
    "name": "Iran",
    "emoji": "ğŸ‡®ğŸ‡·",
    "unicode": "U+1F1EE U+1F1F7",
    "image": "https://cdn.jsdelivr.net/npm/country-flag-emoji-json@2.0.0/dist/images/IR.svg"
  },
  {
    "code": "IQ",
    "name": "Iraq",
    "emoji": "ğŸ‡®ğŸ‡¶",
    "unicode": "U+1F1EE U+1F1F6",
    "image": "https://cdn.jsdelivr.net/npm/country-flag-emoji-json@2.0.0/dist/images/IQ.svg",
    "flag": "ğŸ‡®ğŸ‡¶",
    "dial_code": "+964"
  },
  {
    "code": "IE",
    "name": "Ireland",
    "emoji": "ğŸ‡®ğŸ‡ª",
    "unicode": "U+1F1EE U+1F1EA",
    "image": "https://cdn.jsdelivr.net/npm/country-flag-emoji-json@2.0.0/dist/images/IE.svg",
    "flag": "ğŸ‡®ğŸ‡ª",
    "dial_code": "+353"
  },
  {
    "code": "IM",
    "name": "Isle of Man",
    "emoji": "ğŸ‡®ğŸ‡²",
    "unicode": "U+1F1EE U+1F1F2",
    "image": "https://cdn.jsdelivr.net/npm/country-flag-emoji-json@2.0.0/dist/images/IM.svg",
    "flag": "ğŸ‡®ğŸ‡²",
    "dial_code": "+44"
  },
  {
    "code": "IL",
    "name": "Israel",
    "emoji": "ğŸ‡®ğŸ‡±",
    "unicode": "U+1F1EE U+1F1F1",
    "image": "https://cdn.jsdelivr.net/npm/country-flag-emoji-json@2.0.0/dist/images/IL.svg",
    "flag": "ğŸ‡®ğŸ‡±",
    "dial_code": "+972"
  },
  {
    "code": "IT",
    "name": "Italy",
    "emoji": "ğŸ‡®ğŸ‡¹",
    "unicode": "U+1F1EE U+1F1F9",
    "image": "https://cdn.jsdelivr.net/npm/country-flag-emoji-json@2.0.0/dist/images/IT.svg",
    "flag": "ğŸ‡®ğŸ‡¹",
    "dial_code": "+39"
  },
  {
    "code": "JM",
    "name": "Jamaica",
    "emoji": "ğŸ‡¯ğŸ‡²",
    "unicode": "U+1F1EF U+1F1F2",
    "image": "https://cdn.jsdelivr.net/npm/country-flag-emoji-json@2.0.0/dist/images/JM.svg",
    "flag": "ğŸ‡¯ğŸ‡²",
    "dial_code": "+1876"
  },
  {
    "code": "JP",
    "name": "Japan",
    "emoji": "ğŸ‡¯ğŸ‡µ",
    "unicode": "U+1F1EF U+1F1F5",
    "image": "https://cdn.jsdelivr.net/npm/country-flag-emoji-json@2.0.0/dist/images/JP.svg",
    "flag": "ğŸ‡¯ğŸ‡µ",
    "dial_code": "+81"
  },
  {
    "code": "JE",
    "name": "Jersey",
    "emoji": "ğŸ‡¯ğŸ‡ª",
    "unicode": "U+1F1EF U+1F1EA",
    "image": "https://cdn.jsdelivr.net/npm/country-flag-emoji-json@2.0.0/dist/images/JE.svg",
    "flag": "ğŸ‡¯ğŸ‡ª",
    "dial_code": "+44"
  },
  {
    "code": "JO",
    "name": "Jordan",
    "emoji": "ğŸ‡¯ğŸ‡´",
    "unicode": "U+1F1EF U+1F1F4",
    "image": "https://cdn.jsdelivr.net/npm/country-flag-emoji-json@2.0.0/dist/images/JO.svg",
    "flag": "ğŸ‡¯ğŸ‡´",
    "dial_code": "+962"
  },
  {
    "code": "KZ",
    "name": "Kazakhstan",
    "emoji": "ğŸ‡°ğŸ‡¿",
    "unicode": "U+1F1F0 U+1F1FF",
    "image": "https://cdn.jsdelivr.net/npm/country-flag-emoji-json@2.0.0/dist/images/KZ.svg",
    "flag": "ğŸ‡°ğŸ‡¿",
    "dial_code": "+7"
  },
  {
    "code": "KE",
    "name": "Kenya",
    "emoji": "ğŸ‡°ğŸ‡ª",
    "unicode": "U+1F1F0 U+1F1EA",
    "image": "https://cdn.jsdelivr.net/npm/country-flag-emoji-json@2.0.0/dist/images/KE.svg",
    "flag": "ğŸ‡°ğŸ‡ª",
    "dial_code": "+254"
  },
  {
    "code": "KI",
    "name": "Kiribati",
    "emoji": "ğŸ‡°ğŸ‡®",
    "unicode": "U+1F1F0 U+1F1EE",
    "image": "https://cdn.jsdelivr.net/npm/country-flag-emoji-json@2.0.0/dist/images/KI.svg",
    "flag": "ğŸ‡°ğŸ‡®",
    "dial_code": "+686"
  },
  {
    "code": "XK",
    "name": "Kosovo",
    "emoji": "ğŸ‡½ğŸ‡°",
    "unicode": "U+1F1FD U+1F1F0",
    "image": "https://cdn.jsdelivr.net/npm/country-flag-emoji-json@2.0.0/dist/images/XK.svg",
    "flag": "ğŸ‡½ğŸ‡°",
    "dial_code": "+383"
  },
  {
    "code": "KW",
    "name": "Kuwait",
    "emoji": "ğŸ‡°ğŸ‡¼",
    "unicode": "U+1F1F0 U+1F1FC",
    "image": "https://cdn.jsdelivr.net/npm/country-flag-emoji-json@2.0.0/dist/images/KW.svg",
    "flag": "ğŸ‡°ğŸ‡¼",
    "dial_code": "+965"
  },
  {
    "code": "KG",
    "name": "Kyrgyzstan",
    "emoji": "ğŸ‡°ğŸ‡¬",
    "unicode": "U+1F1F0 U+1F1EC",
    "image": "https://cdn.jsdelivr.net/npm/country-flag-emoji-json@2.0.0/dist/images/KG.svg",
    "flag": "ğŸ‡°ğŸ‡¬",
    "dial_code": "+996"
  },
  {
    "code": "LA",
    "name": "Laos",
    "emoji": "ğŸ‡±ğŸ‡¦",
    "unicode": "U+1F1F1 U+1F1E6",
    "image": "https://cdn.jsdelivr.net/npm/country-flag-emoji-json@2.0.0/dist/images/LA.svg",
    "flag": "ğŸ‡±ğŸ‡¦",
    "dial_code": "+856"
  },
  {
    "code": "LV",
    "name": "Latvia",
    "emoji": "ğŸ‡±ğŸ‡»",
    "unicode": "U+1F1F1 U+1F1FB",
    "image": "https://cdn.jsdelivr.net/npm/country-flag-emoji-json@2.0.0/dist/images/LV.svg",
    "flag": "ğŸ‡±ğŸ‡»",
    "dial_code": "+371"
  },
  {
    "code": "LB",
    "name": "Lebanon",
    "emoji": "ğŸ‡±ğŸ‡§",
    "unicode": "U+1F1F1 U+1F1E7",
    "image": "https://cdn.jsdelivr.net/npm/country-flag-emoji-json@2.0.0/dist/images/LB.svg",
    "flag": "ğŸ‡±ğŸ‡§",
    "dial_code": "+961"
  },
  {
    "code": "LS",
    "name": "Lesotho",
    "emoji": "ğŸ‡±ğŸ‡¸",
    "unicode": "U+1F1F1 U+1F1F8",
    "image": "https://cdn.jsdelivr.net/npm/country-flag-emoji-json@2.0.0/dist/images/LS.svg",
    "flag": "ğŸ‡±ğŸ‡¸",
    "dial_code": "+266"
  },
  {
    "code": "LR",
    "name": "Liberia",
    "emoji": "ğŸ‡±ğŸ‡·",
    "unicode": "U+1F1F1 U+1F1F7",
    "image": "https://cdn.jsdelivr.net/npm/country-flag-emoji-json@2.0.0/dist/images/LR.svg",
    "flag": "ğŸ‡±ğŸ‡·",
    "dial_code": "+231"
  },
  {
    "code": "LY",
    "name": "Libya",
    "emoji": "ğŸ‡±ğŸ‡¾",
    "unicode": "U+1F1F1 U+1F1FE",
    "image": "https://cdn.jsdelivr.net/npm/country-flag-emoji-json@2.0.0/dist/images/LY.svg"
  },
  {
    "code": "LI",
    "name": "Liechtenstein",
    "emoji": "ğŸ‡±ğŸ‡®",
    "unicode": "U+1F1F1 U+1F1EE",
    "image": "https://cdn.jsdelivr.net/npm/country-flag-emoji-json@2.0.0/dist/images/LI.svg",
    "flag": "ğŸ‡±ğŸ‡®",
    "dial_code": "+423"
  },
  {
    "code": "LT",
    "name": "Lithuania",
    "emoji": "ğŸ‡±ğŸ‡¹",
    "unicode": "U+1F1F1 U+1F1F9",
    "image": "https://cdn.jsdelivr.net/npm/country-flag-emoji-json@2.0.0/dist/images/LT.svg",
    "flag": "ğŸ‡±ğŸ‡¹",
    "dial_code": "+370"
  },
  {
    "code": "LU",
    "name": "Luxembourg",
    "emoji": "ğŸ‡±ğŸ‡º",
    "unicode": "U+1F1F1 U+1F1FA",
    "image": "https://cdn.jsdelivr.net/npm/country-flag-emoji-json@2.0.0/dist/images/LU.svg",
    "flag": "ğŸ‡±ğŸ‡º",
    "dial_code": "+352"
  },
  {
    "code": "MO",
    "name": "Macao SAR China",
    "emoji": "ğŸ‡²ğŸ‡´",
    "unicode": "U+1F1F2 U+1F1F4",
    "image": "https://cdn.jsdelivr.net/npm/country-flag-emoji-json@2.0.0/dist/images/MO.svg"
  },
  {
    "code": "MG",
    "name": "Madagascar",
    "emoji": "ğŸ‡²ğŸ‡¬",
    "unicode": "U+1F1F2 U+1F1EC",
    "image": "https://cdn.jsdelivr.net/npm/country-flag-emoji-json@2.0.0/dist/images/MG.svg",
    "flag": "ğŸ‡²ğŸ‡¬",
    "dial_code": "+261"
  },
  {
    "code": "MW",
    "name": "Malawi",
    "emoji": "ğŸ‡²ğŸ‡¼",
    "unicode": "U+1F1F2 U+1F1FC",
    "image": "https://cdn.jsdelivr.net/npm/country-flag-emoji-json@2.0.0/dist/images/MW.svg",
    "flag": "ğŸ‡²ğŸ‡¼",
    "dial_code": "+265"
  },
  {
    "code": "MY",
    "name": "Malaysia",
    "emoji": "ğŸ‡²ğŸ‡¾",
    "unicode": "U+1F1F2 U+1F1FE",
    "image": "https://cdn.jsdelivr.net/npm/country-flag-emoji-json@2.0.0/dist/images/MY.svg",
    "flag": "ğŸ‡²ğŸ‡¾",
    "dial_code": "+60"
  },
  {
    "code": "MV",
    "name": "Maldives",
    "emoji": "ğŸ‡²ğŸ‡»",
    "unicode": "U+1F1F2 U+1F1FB",
    "image": "https://cdn.jsdelivr.net/npm/country-flag-emoji-json@2.0.0/dist/images/MV.svg",
    "flag": "ğŸ‡²ğŸ‡»",
    "dial_code": "+960"
  },
  {
    "code": "ML",
    "name": "Mali",
    "emoji": "ğŸ‡²ğŸ‡±",
    "unicode": "U+1F1F2 U+1F1F1",
    "image": "https://cdn.jsdelivr.net/npm/country-flag-emoji-json@2.0.0/dist/images/ML.svg",
    "flag": "ğŸ‡²ğŸ‡±",
    "dial_code": "+223"
  },
  {
    "code": "MT",
    "name": "Malta",
    "emoji": "ğŸ‡²ğŸ‡¹",
    "unicode": "U+1F1F2 U+1F1F9",
    "image": "https://cdn.jsdelivr.net/npm/country-flag-emoji-json@2.0.0/dist/images/MT.svg",
    "flag": "ğŸ‡²ğŸ‡¹",
    "dial_code": "+356"
  },
  {
    "code": "MH",
    "name": "Marshall Islands",
    "emoji": "ğŸ‡²ğŸ‡­",
    "unicode": "U+1F1F2 U+1F1ED",
    "image": "https://cdn.jsdelivr.net/npm/country-flag-emoji-json@2.0.0/dist/images/MH.svg",
    "flag": "ğŸ‡²ğŸ‡­",
    "dial_code": "+692"
  },
  {
    "code": "MQ",
    "name": "Martinique",
    "emoji": "ğŸ‡²ğŸ‡¶",
    "unicode": "U+1F1F2 U+1F1F6",
    "image": "https://cdn.jsdelivr.net/npm/country-flag-emoji-json@2.0.0/dist/images/MQ.svg",
    "flag": "ğŸ‡²ğŸ‡¶",
    "dial_code": "+596"
  },
  {
    "code": "MR",
    "name": "Mauritania",
    "emoji": "ğŸ‡²ğŸ‡·",
    "unicode": "U+1F1F2 U+1F1F7",
    "image": "https://cdn.jsdelivr.net/npm/country-flag-emoji-json@2.0.0/dist/images/MR.svg",
    "flag": "ğŸ‡²ğŸ‡·",
    "dial_code": "+222"
  },
  {
    "code": "MU",
    "name": "Mauritius",
    "emoji": "ğŸ‡²ğŸ‡º",
    "unicode": "U+1F1F2 U+1F1FA",
    "image": "https://cdn.jsdelivr.net/npm/country-flag-emoji-json@2.0.0/dist/images/MU.svg",
    "flag": "ğŸ‡²ğŸ‡º",
    "dial_code": "+230"
  },
  {
    "code": "YT",
    "name": "Mayotte",
    "emoji": "ğŸ‡¾ğŸ‡¹",
    "unicode": "U+1F1FE U+1F1F9",
    "image": "https://cdn.jsdelivr.net/npm/country-flag-emoji-json@2.0.0/dist/images/YT.svg",
    "flag": "ğŸ‡¾ğŸ‡¹",
    "dial_code": "+262"
  },
  {
    "code": "MX",
    "name": "Mexico",
    "emoji": "ğŸ‡²ğŸ‡½",
    "unicode": "U+1F1F2 U+1F1FD",
    "image": "https://cdn.jsdelivr.net/npm/country-flag-emoji-json@2.0.0/dist/images/MX.svg",
    "flag": "ğŸ‡²ğŸ‡½",
    "dial_code": "+52"
  },
  {
    "code": "FM",
    "name": "Micronesia",
    "emoji": "ğŸ‡«ğŸ‡²",
    "unicode": "U+1F1EB U+1F1F2",
    "image": "https://cdn.jsdelivr.net/npm/country-flag-emoji-json@2.0.0/dist/images/FM.svg"
  },
  {
    "code": "MD",
    "name": "Moldova",
    "emoji": "ğŸ‡²ğŸ‡©",
    "unicode": "U+1F1F2 U+1F1E9",
    "image": "https://cdn.jsdelivr.net/npm/country-flag-emoji-json@2.0.0/dist/images/MD.svg",
    "flag": "ğŸ‡²ğŸ‡©",
    "dial_code": "+373"
  },
  {
    "code": "MC",
    "name": "Monaco",
    "emoji": "ğŸ‡²ğŸ‡¨",
    "unicode": "U+1F1F2 U+1F1E8",
    "image": "https://cdn.jsdelivr.net/npm/country-flag-emoji-json@2.0.0/dist/images/MC.svg",
    "flag": "ğŸ‡²ğŸ‡¨",
    "dial_code": "+377"
  },
  {
    "code": "MN",
    "name": "Mongolia",
    "emoji": "ğŸ‡²ğŸ‡³",
    "unicode": "U+1F1F2 U+1F1F3",
    "image": "https://cdn.jsdelivr.net/npm/country-flag-emoji-json@2.0.0/dist/images/MN.svg",
    "flag": "ğŸ‡²ğŸ‡³",
    "dial_code": "+976"
  },
  {
    "code": "ME",
    "name": "Montenegro",
    "emoji": "ğŸ‡²ğŸ‡ª",
    "unicode": "U+1F1F2 U+1F1EA",
    "image": "https://cdn.jsdelivr.net/npm/country-flag-emoji-json@2.0.0/dist/images/ME.svg",
    "flag": "ğŸ‡²ğŸ‡ª",
    "dial_code": "+382"
  },
  {
    "code": "MS",
    "name": "Montserrat",
    "emoji": "ğŸ‡²ğŸ‡¸",
    "unicode": "U+1F1F2 U+1F1F8",
    "image": "https://cdn.jsdelivr.net/npm/country-flag-emoji-json@2.0.0/dist/images/MS.svg",
    "flag": "ğŸ‡²ğŸ‡¸",
    "dial_code": "+1664"
  },
  {
    "code": "MA",
    "name": "Morocco",
    "emoji": "ğŸ‡²ğŸ‡¦",
    "unicode": "U+1F1F2 U+1F1E6",
    "image": "https://cdn.jsdelivr.net/npm/country-flag-emoji-json@2.0.0/dist/images/MA.svg",
    "flag": "ğŸ‡²ğŸ‡¦",
    "dial_code": "+212"
  },
  {
    "code": "MZ",
    "name": "Mozambique",
    "emoji": "ğŸ‡²ğŸ‡¿",
    "unicode": "U+1F1F2 U+1F1FF",
    "image": "https://cdn.jsdelivr.net/npm/country-flag-emoji-json@2.0.0/dist/images/MZ.svg",
    "flag": "ğŸ‡²ğŸ‡¿",
    "dial_code": "+258"
  },
  {
    "code": "MM",
    "name": "Myanmar (Burma)",
    "emoji": "ğŸ‡²ğŸ‡²",
    "unicode": "U+1F1F2 U+1F1F2",
    "image": "https://cdn.jsdelivr.net/npm/country-flag-emoji-json@2.0.0/dist/images/MM.svg"
  },
  {
    "code": "NA",
    "name": "Namibia",
    "emoji": "ğŸ‡³ğŸ‡¦",
    "unicode": "U+1F1F3 U+1F1E6",
    "image": "https://cdn.jsdelivr.net/npm/country-flag-emoji-json@2.0.0/dist/images/NA.svg",
    "flag": "ğŸ‡³ğŸ‡¦",
    "dial_code": "+264"
  },
  {
    "code": "NR",
    "name": "Nauru",
    "emoji": "ğŸ‡³ğŸ‡·",
    "unicode": "U+1F1F3 U+1F1F7",
    "image": "https://cdn.jsdelivr.net/npm/country-flag-emoji-json@2.0.0/dist/images/NR.svg",
    "flag": "ğŸ‡³ğŸ‡·",
    "dial_code": "+674"
  },
  {
    "code": "NP",
    "name": "Nepal",
    "emoji": "ğŸ‡³ğŸ‡µ",
    "unicode": "U+1F1F3 U+1F1F5",
    "image": "https://cdn.jsdelivr.net/npm/country-flag-emoji-json@2.0.0/dist/images/NP.svg",
    "flag": "ğŸ‡³ğŸ‡µ",
    "dial_code": "+977"
  },
  {
    "code": "NL",
    "name": "Netherlands",
    "emoji": "ğŸ‡³ğŸ‡±",
    "unicode": "U+1F1F3 U+1F1F1",
    "image": "https://cdn.jsdelivr.net/npm/country-flag-emoji-json@2.0.0/dist/images/NL.svg",
    "flag": "ğŸ‡³ğŸ‡±",
    "dial_code": "+31"
  },
  {
    "code": "NC",
    "name": "New Caledonia",
    "emoji": "ğŸ‡³ğŸ‡¨",
    "unicode": "U+1F1F3 U+1F1E8",
    "image": "https://cdn.jsdelivr.net/npm/country-flag-emoji-json@2.0.0/dist/images/NC.svg",
    "flag": "ğŸ‡³ğŸ‡¨",
    "dial_code": "+687"
  },
  {
    "code": "NZ",
    "name": "New Zealand",
    "emoji": "ğŸ‡³ğŸ‡¿",
    "unicode": "U+1F1F3 U+1F1FF",
    "image": "https://cdn.jsdelivr.net/npm/country-flag-emoji-json@2.0.0/dist/images/NZ.svg",
    "flag": "ğŸ‡³ğŸ‡¿",
    "dial_code": "+64"
  },
  {
    "code": "NI",
    "name": "Nicaragua",
    "emoji": "ğŸ‡³ğŸ‡®",
    "unicode": "U+1F1F3 U+1F1EE",
    "image": "https://cdn.jsdelivr.net/npm/country-flag-emoji-json@2.0.0/dist/images/NI.svg",
    "flag": "ğŸ‡³ğŸ‡®",
    "dial_code": "+505"
  },
  {
    "code": "NE",
    "name": "Niger",
    "emoji": "ğŸ‡³ğŸ‡ª",
    "unicode": "U+1F1F3 U+1F1EA",
    "image": "https://cdn.jsdelivr.net/npm/country-flag-emoji-json@2.0.0/dist/images/NE.svg",
    "flag": "ğŸ‡³ğŸ‡ª",
    "dial_code": "+227"
  },
  {
    "code": "NG",
    "name": "Nigeria",
    "emoji": "ğŸ‡³ğŸ‡¬",
    "unicode": "U+1F1F3 U+1F1EC",
    "image": "https://cdn.jsdelivr.net/npm/country-flag-emoji-json@2.0.0/dist/images/NG.svg",
    "flag": "ğŸ‡³ğŸ‡¬",
    "dial_code": "+234"
  },
  {
    "code": "NU",
    "name": "Niue",
    "emoji": "ğŸ‡³ğŸ‡º",
    "unicode": "U+1F1F3 U+1F1FA",
    "image": "https://cdn.jsdelivr.net/npm/country-flag-emoji-json@2.0.0/dist/images/NU.svg",
    "flag": "ğŸ‡³ğŸ‡º",
    "dial_code": "+683"
  },
  {
    "code": "NF",
    "name": "Norfolk Island",
    "emoji": "ğŸ‡³ğŸ‡«",
    "unicode": "U+1F1F3 U+1F1EB",
    "image": "https://cdn.jsdelivr.net/npm/country-flag-emoji-json@2.0.0/dist/images/NF.svg",
    "flag": "ğŸ‡³ğŸ‡«",
    "dial_code": "+672"
  },
  {
    "code": "KP",
    "name": "North Korea",
    "emoji": "ğŸ‡°ğŸ‡µ",
    "unicode": "U+1F1F0 U+1F1F5",
    "image": "https://cdn.jsdelivr.net/npm/country-flag-emoji-json@2.0.0/dist/images/KP.svg"
  },
  {
    "code": "MK",
    "name": "North Macedonia",
    "emoji": "ğŸ‡²ğŸ‡°",
    "unicode": "U+1F1F2 U+1F1F0",
    "image": "https://cdn.jsdelivr.net/npm/country-flag-emoji-json@2.0.0/dist/images/MK.svg"
  },
  {
    "code": "MP",
    "name": "Northern Mariana Islands",
    "emoji": "ğŸ‡²ğŸ‡µ",
    "unicode": "U+1F1F2 U+1F1F5",
    "image": "https://cdn.jsdelivr.net/npm/country-flag-emoji-json@2.0.0/dist/images/MP.svg",
    "flag": "ğŸ‡²ğŸ‡µ",
    "dial_code": "+1670"
  },
  {
    "code": "NO",
    "name": "Norway",
    "emoji": "ğŸ‡³ğŸ‡´",
    "unicode": "U+1F1F3 U+1F1F4",
    "image": "https://cdn.jsdelivr.net/npm/country-flag-emoji-json@2.0.0/dist/images/NO.svg",
    "flag": "ğŸ‡³ğŸ‡´",
    "dial_code": "+47"
  },
  {
    "code": "OM",
    "name": "Oman",
    "emoji": "ğŸ‡´ğŸ‡²",
    "unicode": "U+1F1F4 U+1F1F2",
    "image": "https://cdn.jsdelivr.net/npm/country-flag-emoji-json@2.0.0/dist/images/OM.svg",
    "flag": "ğŸ‡´ğŸ‡²",
    "dial_code": "+968"
  },
  {
    "code": "PK",
    "name": "Pakistan",
    "emoji": "ğŸ‡µğŸ‡°",
    "unicode": "U+1F1F5 U+1F1F0",
    "image": "https://cdn.jsdelivr.net/npm/country-flag-emoji-json@2.0.0/dist/images/PK.svg",
    "flag": "ğŸ‡µğŸ‡°",
    "dial_code": "+92"
  },
  {
    "code": "PW",
    "name": "Palau",
    "emoji": "ğŸ‡µğŸ‡¼",
    "unicode": "U+1F1F5 U+1F1FC",
    "image": "https://cdn.jsdelivr.net/npm/country-flag-emoji-json@2.0.0/dist/images/PW.svg",
    "flag": "ğŸ‡µğŸ‡¼",
    "dial_code": "+680"
  },
  {
    "code": "PS",
    "name": "Palestinian Territories",
    "emoji": "ğŸ‡µğŸ‡¸",
    "unicode": "U+1F1F5 U+1F1F8",
    "image": "https://cdn.jsdelivr.net/npm/country-flag-emoji-json@2.0.0/dist/images/PS.svg"
  },
  {
    "code": "PA",
    "name": "Panama",
    "emoji": "ğŸ‡µğŸ‡¦",
    "unicode": "U+1F1F5 U+1F1E6",
    "image": "https://cdn.jsdelivr.net/npm/country-flag-emoji-json@2.0.0/dist/images/PA.svg",
    "flag": "ğŸ‡µğŸ‡¦",
    "dial_code": "+507"
  },
  {
    "code": "PG",
    "name": "Papua New Guinea",
    "emoji": "ğŸ‡µğŸ‡¬",
    "unicode": "U+1F1F5 U+1F1EC",
    "image": "https://cdn.jsdelivr.net/npm/country-flag-emoji-json@2.0.0/dist/images/PG.svg",
    "flag": "ğŸ‡µğŸ‡¬",
    "dial_code": "+675"
  },
  {
    "code": "PY",
    "name": "Paraguay",
    "emoji": "ğŸ‡µğŸ‡¾",
    "unicode": "U+1F1F5 U+1F1FE",
    "image": "https://cdn.jsdelivr.net/npm/country-flag-emoji-json@2.0.0/dist/images/PY.svg",
    "flag": "ğŸ‡µğŸ‡¾",
    "dial_code": "+595"
  },
  {
    "code": "PE",
    "name": "Peru",
    "emoji": "ğŸ‡µğŸ‡ª",
    "unicode": "U+1F1F5 U+1F1EA",
    "image": "https://cdn.jsdelivr.net/npm/country-flag-emoji-json@2.0.0/dist/images/PE.svg",
    "flag": "ğŸ‡µğŸ‡ª",
    "dial_code": "+51"
  },
  {
    "code": "PH",
    "name": "Philippines",
    "emoji": "ğŸ‡µğŸ‡­",
    "unicode": "U+1F1F5 U+1F1ED",
    "image": "https://cdn.jsdelivr.net/npm/country-flag-emoji-json@2.0.0/dist/images/PH.svg",
    "flag": "ğŸ‡µğŸ‡­",
    "dial_code": "+63"
  },
  {
    "code": "PN",
    "name": "Pitcairn Islands",
    "emoji": "ğŸ‡µğŸ‡³",
    "unicode": "U+1F1F5 U+1F1F3",
    "image": "https://cdn.jsdelivr.net/npm/country-flag-emoji-json@2.0.0/dist/images/PN.svg"
  },
  {
    "code": "PL",
    "name": "Poland",
    "emoji": "ğŸ‡µğŸ‡±",
    "unicode": "U+1F1F5 U+1F1F1",
    "image": "https://cdn.jsdelivr.net/npm/country-flag-emoji-json@2.0.0/dist/images/PL.svg",
    "flag": "ğŸ‡µğŸ‡±",
    "dial_code": "+48"
  },
  {
    "code": "PT",
    "name": "Portugal",
    "emoji": "ğŸ‡µğŸ‡¹",
    "unicode": "U+1F1F5 U+1F1F9",
    "image": "https://cdn.jsdelivr.net/npm/country-flag-emoji-json@2.0.0/dist/images/PT.svg",
    "flag": "ğŸ‡µğŸ‡¹",
    "dial_code": "+351"
  },
  {
    "code": "PR",
    "name": "Puerto Rico",
    "emoji": "ğŸ‡µğŸ‡·",
    "unicode": "U+1F1F5 U+1F1F7",
    "image": "https://cdn.jsdelivr.net/npm/country-flag-emoji-json@2.0.0/dist/images/PR.svg",
    "flag": "ğŸ‡µğŸ‡·",
    "dial_code": "+1939"
  },
  {
    "code": "QA",
    "name": "Qatar",
    "emoji": "ğŸ‡¶ğŸ‡¦",
    "unicode": "U+1F1F6 U+1F1E6",
    "image": "https://cdn.jsdelivr.net/npm/country-flag-emoji-json@2.0.0/dist/images/QA.svg",
    "flag": "ğŸ‡¶ğŸ‡¦",
    "dial_code": "+974"
  },
  {
    "code": "RO",
    "name": "Romania",
    "emoji": "ğŸ‡·ğŸ‡´",
    "unicode": "U+1F1F7 U+1F1F4",
    "image": "https://cdn.jsdelivr.net/npm/country-flag-emoji-json@2.0.0/dist/images/RO.svg",
    "flag": "ğŸ‡·ğŸ‡´",
    "dial_code": "+40"
  },
  {
    "code": "RU",
    "name": "Russia",
    "emoji": "ğŸ‡·ğŸ‡º",
    "unicode": "U+1F1F7 U+1F1FA",
    "image": "https://cdn.jsdelivr.net/npm/country-flag-emoji-json@2.0.0/dist/images/RU.svg",
    "flag": "ğŸ‡·ğŸ‡º",
    "dial_code": "+7"
  },
  {
    "code": "RW",
    "name": "Rwanda",
    "emoji": "ğŸ‡·ğŸ‡¼",
    "unicode": "U+1F1F7 U+1F1FC",
    "image": "https://cdn.jsdelivr.net/npm/country-flag-emoji-json@2.0.0/dist/images/RW.svg",
    "flag": "ğŸ‡·ğŸ‡¼",
    "dial_code": "+250"
  },
  {
    "code": "RE",
    "name": "RÃ©union",
    "emoji": "ğŸ‡·ğŸ‡ª",
    "unicode": "U+1F1F7 U+1F1EA",
    "image": "https://cdn.jsdelivr.net/npm/country-flag-emoji-json@2.0.0/dist/images/RE.svg"
  },
  {
    "code": "WS",
    "name": "Samoa",
    "emoji": "ğŸ‡¼ğŸ‡¸",
    "unicode": "U+1F1FC U+1F1F8",
    "image": "https://cdn.jsdelivr.net/npm/country-flag-emoji-json@2.0.0/dist/images/WS.svg",
    "flag": "ğŸ‡¼ğŸ‡¸",
    "dial_code": "+685"
  },
  {
    "code": "SM",
    "name": "San Marino",
    "emoji": "ğŸ‡¸ğŸ‡²",
    "unicode": "U+1F1F8 U+1F1F2",
    "image": "https://cdn.jsdelivr.net/npm/country-flag-emoji-json@2.0.0/dist/images/SM.svg",
    "flag": "ğŸ‡¸ğŸ‡²",
    "dial_code": "+378"
  },
  {
    "code": "SA",
    "name": "Saudi Arabia",
    "emoji": "ğŸ‡¸ğŸ‡¦",
    "unicode": "U+1F1F8 U+1F1E6",
    "image": "https://cdn.jsdelivr.net/npm/country-flag-emoji-json@2.0.0/dist/images/SA.svg",
    "flag": "ğŸ‡¸ğŸ‡¦",
    "dial_code": "+966"
  },
  {
    "code": "SCOTLAND",
    "name": "Scotland",
    "emoji": "ğŸ´ó §ó ¢ó ³ó £ó ´ó ¿",
    "unicode": "U+1F3F4 U+E0067 U+E0062 U+E0073 U+E0063 U+E0074 U+E007F",
    "image": "https://cdn.jsdelivr.net/npm/country-flag-emoji-json@2.0.0/dist/images/SCOTLAND.svg"
  },
  {
    "code": "SN",
    "name": "Senegal",
    "emoji": "ğŸ‡¸ğŸ‡³",
    "unicode": "U+1F1F8 U+1F1F3",
    "image": "https://cdn.jsdelivr.net/npm/country-flag-emoji-json@2.0.0/dist/images/SN.svg",
    "flag": "ğŸ‡¸ğŸ‡³",
    "dial_code": "+221"
  },
  {
    "code": "RS",
    "name": "Serbia",
    "emoji": "ğŸ‡·ğŸ‡¸",
    "unicode": "U+1F1F7 U+1F1F8",
    "image": "https://cdn.jsdelivr.net/npm/country-flag-emoji-json@2.0.0/dist/images/RS.svg",
    "flag": "ğŸ‡·ğŸ‡¸",
    "dial_code": "+381"
  },
  {
    "code": "SC",
    "name": "Seychelles",
    "emoji": "ğŸ‡¸ğŸ‡¨",
    "unicode": "U+1F1F8 U+1F1E8",
    "image": "https://cdn.jsdelivr.net/npm/country-flag-emoji-json@2.0.0/dist/images/SC.svg",
    "flag": "ğŸ‡¸ğŸ‡¨",
    "dial_code": "+248"
  },
  {
    "code": "SL",
    "name": "Sierra Leone",
    "emoji": "ğŸ‡¸ğŸ‡±",
    "unicode": "U+1F1F8 U+1F1F1",
    "image": "https://cdn.jsdelivr.net/npm/country-flag-emoji-json@2.0.0/dist/images/SL.svg",
    "flag": "ğŸ‡¸ğŸ‡±",
    "dial_code": "+232"
  },
  {
    "code": "SG",
    "name": "Singapore",
    "emoji": "ğŸ‡¸ğŸ‡¬",
    "unicode": "U+1F1F8 U+1F1EC",
    "image": "https://cdn.jsdelivr.net/npm/country-flag-emoji-json@2.0.0/dist/images/SG.svg",
    "flag": "ğŸ‡¸ğŸ‡¬",
    "dial_code": "+65"
  },
  {
    "code": "SX",
    "name": "Sint Maarten",
    "emoji": "ğŸ‡¸ğŸ‡½",
    "unicode": "U+1F1F8 U+1F1FD",
    "image": "https://cdn.jsdelivr.net/npm/country-flag-emoji-json@2.0.0/dist/images/SX.svg"
  },
  {
    "code": "SK",
    "name": "Slovakia",
    "emoji": "ğŸ‡¸ğŸ‡°",
    "unicode": "U+1F1F8 U+1F1F0",
    "image": "https://cdn.jsdelivr.net/npm/country-flag-emoji-json@2.0.0/dist/images/SK.svg",
    "flag": "ğŸ‡¸ğŸ‡°",
    "dial_code": "+421"
  },
  {
    "code": "SI",
    "name": "Slovenia",
    "emoji": "ğŸ‡¸ğŸ‡®",
    "unicode": "U+1F1F8 U+1F1EE",
    "image": "https://cdn.jsdelivr.net/npm/country-flag-emoji-json@2.0.0/dist/images/SI.svg",
    "flag": "ğŸ‡¸ğŸ‡®",
    "dial_code": "+386"
  },
  {
    "code": "SB",
    "name": "Solomon Islands",
    "emoji": "ğŸ‡¸ğŸ‡§",
    "unicode": "U+1F1F8 U+1F1E7",
    "image": "https://cdn.jsdelivr.net/npm/country-flag-emoji-json@2.0.0/dist/images/SB.svg",
    "flag": "ğŸ‡¸ğŸ‡§",
    "dial_code": "+677"
  },
  {
    "code": "SO",
    "name": "Somalia",
    "emoji": "ğŸ‡¸ğŸ‡´",
    "unicode": "U+1F1F8 U+1F1F4",
    "image": "https://cdn.jsdelivr.net/npm/country-flag-emoji-json@2.0.0/dist/images/SO.svg",
    "flag": "ğŸ‡¸ğŸ‡´",
    "dial_code": "+252"
  },
  {
    "code": "ZA",
    "name": "South Africa",
    "emoji": "ğŸ‡¿ğŸ‡¦",
    "unicode": "U+1F1FF U+1F1E6",
    "image": "https://cdn.jsdelivr.net/npm/country-flag-emoji-json@2.0.0/dist/images/ZA.svg",
    "flag": "ğŸ‡¿ğŸ‡¦",
    "dial_code": "+27"
  },
  {
    "code": "GS",
    "name": "South Georgia & South Sandwich Islands",
    "emoji": "ğŸ‡¬ğŸ‡¸",
    "unicode": "U+1F1EC U+1F1F8",
    "image": "https://cdn.jsdelivr.net/npm/country-flag-emoji-json@2.0.0/dist/images/GS.svg"
  },
  {
    "code": "KR",
    "name": "South Korea",
    "emoji": "ğŸ‡°ğŸ‡·",
    "unicode": "U+1F1F0 U+1F1F7",
    "image": "https://cdn.jsdelivr.net/npm/country-flag-emoji-json@2.0.0/dist/images/KR.svg"
  },
  {
    "code": "SS",
    "name": "South Sudan",
    "emoji": "ğŸ‡¸ğŸ‡¸",
    "unicode": "U+1F1F8 U+1F1F8",
    "image": "https://cdn.jsdelivr.net/npm/country-flag-emoji-json@2.0.0/dist/images/SS.svg",
    "flag": "ğŸ‡¸ğŸ‡¸",
    "dial_code": "+211"
  },
  {
    "code": "ES",
    "name": "Spain",
    "emoji": "ğŸ‡ªğŸ‡¸",
    "unicode": "U+1F1EA U+1F1F8",
    "image": "https://cdn.jsdelivr.net/npm/country-flag-emoji-json@2.0.0/dist/images/ES.svg",
    "flag": "ğŸ‡ªğŸ‡¸",
    "dial_code": "+34"
  },
  {
    "code": "LK",
    "name": "Sri Lanka",
    "emoji": "ğŸ‡±ğŸ‡°",
    "unicode": "U+1F1F1 U+1F1F0",
    "image": "https://cdn.jsdelivr.net/npm/country-flag-emoji-json@2.0.0/dist/images/LK.svg",
    "flag": "ğŸ‡±ğŸ‡°",
    "dial_code": "+94"
  },
  {
    "code": "BL",
    "name": "St. BarthÃ©lemy",
    "emoji": "ğŸ‡§ğŸ‡±",
    "unicode": "U+1F1E7 U+1F1F1",
    "image": "https://cdn.jsdelivr.net/npm/country-flag-emoji-json@2.0.0/dist/images/BL.svg"
  },
  {
    "code": "SH",
    "name": "St. Helena",
    "emoji": "ğŸ‡¸ğŸ‡­",
    "unicode": "U+1F1F8 U+1F1ED",
    "image": "https://cdn.jsdelivr.net/npm/country-flag-emoji-json@2.0.0/dist/images/SH.svg"
  },
  {
    "code": "KN",
    "name": "St. Kitts & Nevis",
    "emoji": "ğŸ‡°ğŸ‡³",
    "unicode": "U+1F1F0 U+1F1F3",
    "image": "https://cdn.jsdelivr.net/npm/country-flag-emoji-json@2.0.0/dist/images/KN.svg"
  },
  {
    "code": "LC",
    "name": "St. Lucia",
    "emoji": "ğŸ‡±ğŸ‡¨",
    "unicode": "U+1F1F1 U+1F1E8",
    "image": "https://cdn.jsdelivr.net/npm/country-flag-emoji-json@2.0.0/dist/images/LC.svg"
  },
  {
    "code": "MF",
    "name": "St. Martin",
    "emoji": "ğŸ‡²ğŸ‡«",
    "unicode": "U+1F1F2 U+1F1EB",
    "image": "https://cdn.jsdelivr.net/npm/country-flag-emoji-json@2.0.0/dist/images/MF.svg"
  },
  {
    "code": "PM",
    "name": "St. Pierre & Miquelon",
    "emoji": "ğŸ‡µğŸ‡²",
    "unicode": "U+1F1F5 U+1F1F2",
    "image": "https://cdn.jsdelivr.net/npm/country-flag-emoji-json@2.0.0/dist/images/PM.svg"
  },
  {
    "code": "VC",
    "name": "St. Vincent & Grenadines",
    "emoji": "ğŸ‡»ğŸ‡¨",
    "unicode": "U+1F1FB U+1F1E8",
    "image": "https://cdn.jsdelivr.net/npm/country-flag-emoji-json@2.0.0/dist/images/VC.svg"
  },
  {
    "code": "SD",
    "name": "Sudan",
    "emoji": "ğŸ‡¸ğŸ‡©",
    "unicode": "U+1F1F8 U+1F1E9",
    "image": "https://cdn.jsdelivr.net/npm/country-flag-emoji-json@2.0.0/dist/images/SD.svg",
    "flag": "ğŸ‡¸ğŸ‡©",
    "dial_code": "+249"
  },
  {
    "code": "SR",
    "name": "Suriname",
    "emoji": "ğŸ‡¸ğŸ‡·",
    "unicode": "U+1F1F8 U+1F1F7",
    "image": "https://cdn.jsdelivr.net/npm/country-flag-emoji-json@2.0.0/dist/images/SR.svg",
    "flag": "ğŸ‡¸ğŸ‡·",
    "dial_code": "+597"
  },
  {
    "code": "SJ",
    "name": "Svalbard & Jan Mayen",
    "emoji": "ğŸ‡¸ğŸ‡¯",
    "unicode": "U+1F1F8 U+1F1EF",
    "image": "https://cdn.jsdelivr.net/npm/country-flag-emoji-json@2.0.0/dist/images/SJ.svg"
  },
  {
    "code": "SE",
    "name": "Sweden",
    "emoji": "ğŸ‡¸ğŸ‡ª",
    "unicode": "U+1F1F8 U+1F1EA",
    "image": "https://cdn.jsdelivr.net/npm/country-flag-emoji-json@2.0.0/dist/images/SE.svg",
    "flag": "ğŸ‡¸ğŸ‡ª",
    "dial_code": "+46"
  },
  {
    "code": "CH",
    "name": "Switzerland",
    "emoji": "ğŸ‡¨ğŸ‡­",
    "unicode": "U+1F1E8 U+1F1ED",
    "image": "https://cdn.jsdelivr.net/npm/country-flag-emoji-json@2.0.0/dist/images/CH.svg",
    "flag": "ğŸ‡¨ğŸ‡­",
    "dial_code": "+41"
  },
  {
    "code": "SY",
    "name": "Syria",
    "emoji": "ğŸ‡¸ğŸ‡¾",
    "unicode": "U+1F1F8 U+1F1FE",
    "image": "https://cdn.jsdelivr.net/npm/country-flag-emoji-json@2.0.0/dist/images/SY.svg"
  },
  {
    "code": "ST",
    "name": "SÃ£o TomÃ© & PrÃ­ncipe",
    "emoji": "ğŸ‡¸ğŸ‡¹",
    "unicode": "U+1F1F8 U+1F1F9",
    "image": "https://cdn.jsdelivr.net/npm/country-flag-emoji-json@2.0.0/dist/images/ST.svg"
  },
  {
    "code": "TW",
    "name": "Taiwan",
    "emoji": "ğŸ‡¹ğŸ‡¼",
    "unicode": "U+1F1F9 U+1F1FC",
    "image": "https://cdn.jsdelivr.net/npm/country-flag-emoji-json@2.0.0/dist/images/TW.svg",
    "flag": "ğŸ‡¹ğŸ‡¼",
    "dial_code": "+886"
  },
  {
    "code": "TJ",
    "name": "Tajikistan",
    "emoji": "ğŸ‡¹ğŸ‡¯",
    "unicode": "U+1F1F9 U+1F1EF",
    "image": "https://cdn.jsdelivr.net/npm/country-flag-emoji-json@2.0.0/dist/images/TJ.svg",
    "flag": "ğŸ‡¹ğŸ‡¯",
    "dial_code": "+992"
  },
  {
    "code": "TZ",
    "name": "Tanzania",
    "emoji": "ğŸ‡¹ğŸ‡¿",
    "unicode": "U+1F1F9 U+1F1FF",
    "image": "https://cdn.jsdelivr.net/npm/country-flag-emoji-json@2.0.0/dist/images/TZ.svg"
  },
  {
    "code": "TH",
    "name": "Thailand",
    "emoji": "ğŸ‡¹ğŸ‡­",
    "unicode": "U+1F1F9 U+1F1ED",
    "image": "https://cdn.jsdelivr.net/npm/country-flag-emoji-json@2.0.0/dist/images/TH.svg",
    "flag": "ğŸ‡¹ğŸ‡­",
    "dial_code": "+66"
  },
  {
    "code": "TL",
    "name": "Timor-Leste",
    "emoji": "ğŸ‡¹ğŸ‡±",
    "unicode": "U+1F1F9 U+1F1F1",
    "image": "https://cdn.jsdelivr.net/npm/country-flag-emoji-json@2.0.0/dist/images/TL.svg",
    "flag": "ğŸ‡¹ğŸ‡±",
    "dial_code": "+670"
  },
  {
    "code": "TG",
    "name": "Togo",
    "emoji": "ğŸ‡¹ğŸ‡¬",
    "unicode": "U+1F1F9 U+1F1EC",
    "image": "https://cdn.jsdelivr.net/npm/country-flag-emoji-json@2.0.0/dist/images/TG.svg",
    "flag": "ğŸ‡¹ğŸ‡¬",
    "dial_code": "+228"
  },
  {
    "code": "TK",
    "name": "Tokelau",
    "emoji": "ğŸ‡¹ğŸ‡°",
    "unicode": "U+1F1F9 U+1F1F0",
    "image": "https://cdn.jsdelivr.net/npm/country-flag-emoji-json@2.0.0/dist/images/TK.svg",
    "flag": "ğŸ‡¹ğŸ‡°",
    "dial_code": "+690"
  },
  {
    "code": "TO",
    "name": "Tonga",
    "emoji": "ğŸ‡¹ğŸ‡´",
    "unicode": "U+1F1F9 U+1F1F4",
    "image": "https://cdn.jsdelivr.net/npm/country-flag-emoji-json@2.0.0/dist/images/TO.svg",
    "flag": "ğŸ‡¹ğŸ‡´",
    "dial_code": "+676"
  },
  {
    "code": "TT",
    "name": "Trinidad & Tobago",
    "emoji": "ğŸ‡¹ğŸ‡¹",
    "unicode": "U+1F1F9 U+1F1F9",
    "image": "https://cdn.jsdelivr.net/npm/country-flag-emoji-json@2.0.0/dist/images/TT.svg"
  },
  {
    "code": "TA",
    "name": "Tristan da Cunha",
    "emoji": "ğŸ‡¹ğŸ‡¦",
    "unicode": "U+1F1F9 U+1F1E6",
    "image": "https://cdn.jsdelivr.net/npm/country-flag-emoji-json@2.0.0/dist/images/TA.svg"
  },
  {
    "code": "TN",
    "name": "Tunisia",
    "emoji": "ğŸ‡¹ğŸ‡³",
    "unicode": "U+1F1F9 U+1F1F3",
    "image": "https://cdn.jsdelivr.net/npm/country-flag-emoji-json@2.0.0/dist/images/TN.svg",
    "flag": "ğŸ‡¹ğŸ‡³",
    "dial_code": "+216"
  },
  {
    "code": "TR",
    "name": "Turkey",
    "emoji": "ğŸ‡¹ğŸ‡·",
    "unicode": "U+1F1F9 U+1F1F7",
    "image": "https://cdn.jsdelivr.net/npm/country-flag-emoji-json@2.0.0/dist/images/TR.svg",
    "flag": "ğŸ‡¹ğŸ‡·",
    "dial_code": "+90"
  },
  {
    "code": "TM",
    "name": "Turkmenistan",
    "emoji": "ğŸ‡¹ğŸ‡²",
    "unicode": "U+1F1F9 U+1F1F2",
    "image": "https://cdn.jsdelivr.net/npm/country-flag-emoji-json@2.0.0/dist/images/TM.svg",
    "flag": "ğŸ‡¹ğŸ‡²",
    "dial_code": "+993"
  },
  {
    "code": "TC",
    "name": "Turks & Caicos Islands",
    "emoji": "ğŸ‡¹ğŸ‡¨",
    "unicode": "U+1F1F9 U+1F1E8",
    "image": "https://cdn.jsdelivr.net/npm/country-flag-emoji-json@2.0.0/dist/images/TC.svg"
  },
  {
    "code": "TV",
    "name": "Tuvalu",
    "emoji": "ğŸ‡¹ğŸ‡»",
    "unicode": "U+1F1F9 U+1F1FB",
    "image": "https://cdn.jsdelivr.net/npm/country-flag-emoji-json@2.0.0/dist/images/TV.svg",
    "flag": "ğŸ‡¹ğŸ‡»",
    "dial_code": "+688"
  },
  {
    "code": "UM",
    "name": "U.S. Outlying Islands",
    "emoji": "ğŸ‡ºğŸ‡²",
    "unicode": "U+1F1FA U+1F1F2",
    "image": "https://cdn.jsdelivr.net/npm/country-flag-emoji-json@2.0.0/dist/images/UM.svg"
  },
  {
    "code": "VI",
    "name": "U.S. Virgin Islands",
    "emoji": "ğŸ‡»ğŸ‡®",
    "unicode": "U+1F1FB U+1F1EE",
    "image": "https://cdn.jsdelivr.net/npm/country-flag-emoji-json@2.0.0/dist/images/VI.svg"
  },
  {
    "code": "UG",
    "name": "Uganda",
    "emoji": "ğŸ‡ºğŸ‡¬",
    "unicode": "U+1F1FA U+1F1EC",
    "image": "https://cdn.jsdelivr.net/npm/country-flag-emoji-json@2.0.0/dist/images/UG.svg",
    "flag": "ğŸ‡ºğŸ‡¬",
    "dial_code": "+256"
  },
  {
    "code": "UA",
    "name": "Ukraine",
    "emoji": "ğŸ‡ºğŸ‡¦",
    "unicode": "U+1F1FA U+1F1E6",
    "image": "https://cdn.jsdelivr.net/npm/country-flag-emoji-json@2.0.0/dist/images/UA.svg",
    "flag": "ğŸ‡ºğŸ‡¦",
    "dial_code": "+380"
  },
  {
    "code": "AE",
    "name": "United Arab Emirates",
    "emoji": "ğŸ‡¦ğŸ‡ª",
    "unicode": "U+1F1E6 U+1F1EA",
    "image": "https://cdn.jsdelivr.net/npm/country-flag-emoji-json@2.0.0/dist/images/AE.svg",
    "flag": "ğŸ‡¦ğŸ‡ª",
    "dial_code": "+971"
  },
  {
    "code": "GB",
    "name": "United Kingdom",
    "emoji": "ğŸ‡¬ğŸ‡§",
    "unicode": "U+1F1E6 U+1F1EA",
    "image": "https://cdn.jsdelivr.net/npm/country-flag-emoji-json@2.0.0/dist/images/AE.svg",
    "flag": "ğŸ‡¬ğŸ‡§",
    "dial_code": "+44"
  },
  {
    "code": "UN",
    "name": "United Nations",
    "emoji": "ğŸ‡ºğŸ‡³",
    "unicode": "U+1F1FA U+1F1F3",
    "image": "https://cdn.jsdelivr.net/npm/country-flag-emoji-json@2.0.0/dist/images/UN.svg"
  },
  {
    "code": "US",
    "name": "United States",
    "emoji": "ğŸ‡ºğŸ‡¸",
    "unicode": "U+1F1FA U+1F1F8",
    "image": "https://cdn.jsdelivr.net/npm/country-flag-emoji-json@2.0.0/dist/images/US.svg",
    "flag": "ğŸ‡ºğŸ‡¸",
    "dial_code": "+1"
  },
  {
    "code": "UY",
    "name": "Uruguay",
    "emoji": "ğŸ‡ºğŸ‡¾",
    "unicode": "U+1F1FA U+1F1FE",
    "image": "https://cdn.jsdelivr.net/npm/country-flag-emoji-json@2.0.0/dist/images/UY.svg",
    "flag": "ğŸ‡ºğŸ‡¾",
    "dial_code": "+598"
  },
  {
    "code": "UZ",
    "name": "Uzbekistan",
    "emoji": "ğŸ‡ºğŸ‡¿",
    "unicode": "U+1F1FA U+1F1FF",
    "image": "https://cdn.jsdelivr.net/npm/country-flag-emoji-json@2.0.0/dist/images/UZ.svg",
    "flag": "ğŸ‡ºğŸ‡¿",
    "dial_code": "+998"
  },
  {
    "code": "VU",
    "name": "Vanuatu",
    "emoji": "ğŸ‡»ğŸ‡º",
    "unicode": "U+1F1FB U+1F1FA",
    "image": "https://cdn.jsdelivr.net/npm/country-flag-emoji-json@2.0.0/dist/images/VU.svg",
    "flag": "ğŸ‡»ğŸ‡º",
    "dial_code": "+678"
  },
  {
    "code": "VA",
    "name": "Vatican City",
    "emoji": "ğŸ‡»ğŸ‡¦",
    "unicode": "U+1F1FB U+1F1E6",
    "image": "https://cdn.jsdelivr.net/npm/country-flag-emoji-json@2.0.0/dist/images/VA.svg"
  },
  {
    "code": "VE",
    "name": "Venezuela",
    "emoji": "ğŸ‡»ğŸ‡ª",
    "unicode": "U+1F1FB U+1F1EA",
    "image": "https://cdn.jsdelivr.net/npm/country-flag-emoji-json@2.0.0/dist/images/VE.svg"
  },
  {
    "code": "VN",
    "name": "Vietnam",
    "emoji": "ğŸ‡»ğŸ‡³",
    "unicode": "U+1F1FB U+1F1F3",
    "image": "https://cdn.jsdelivr.net/npm/country-flag-emoji-json@2.0.0/dist/images/VN.svg",
    "flag": "ğŸ‡»ğŸ‡³",
    "dial_code": "+84"
  },
  {
    "code": "WALES",
    "name": "Wales",
    "emoji": "ğŸ´ó §ó ¢ó ·ó ¬ó ³ó ¿",
    "unicode": "U+1F3F4 U+E0067 U+E0062 U+E0077 U+E006C U+E0073 U+E007F",
    "image": "https://cdn.jsdelivr.net/npm/country-flag-emoji-json@2.0.0/dist/images/WALES.svg"
  },
  {
    "code": "WF",
    "name": "Wallis & Futuna",
    "emoji": "ğŸ‡¼ğŸ‡«",
    "unicode": "U+1F1FC U+1F1EB",
    "image": "https://cdn.jsdelivr.net/npm/country-flag-emoji-json@2.0.0/dist/images/WF.svg"
  },
  {
    "code": "EH",
    "name": "Western Sahara",
    "emoji": "ğŸ‡ªğŸ‡­",
    "unicode": "U+1F1EA U+1F1ED",
    "image": "https://cdn.jsdelivr.net/npm/country-flag-emoji-json@2.0.0/dist/images/EH.svg"
  },
  {
    "code": "YE",
    "name": "Yemen",
    "emoji": "ğŸ‡¾ğŸ‡ª",
    "unicode": "U+1F1FE U+1F1EA",
    "image": "https://cdn.jsdelivr.net/npm/country-flag-emoji-json@2.0.0/dist/images/YE.svg",
    "flag": "ğŸ‡¾ğŸ‡ª",
    "dial_code": "+967"
  },
  {
    "code": "ZM",
    "name": "Zambia",
    "emoji": "ğŸ‡¿ğŸ‡²",
    "unicode": "U+1F1FF U+1F1F2",
    "image": "https://cdn.jsdelivr.net/npm/country-flag-emoji-json@2.0.0/dist/images/ZM.svg",
    "flag": "ğŸ‡¿ğŸ‡²",
    "dial_code": "+260"
  },
  {
    "code": "ZW",
    "name": "Zimbabwe",
    "emoji": "ğŸ‡¿ğŸ‡¼",
    "unicode": "U+1F1FF U+1F1FC",
    "image": "https://cdn.jsdelivr.net/npm/country-flag-emoji-json@2.0.0/dist/images/ZW.svg",
    "flag": "ğŸ‡¿ğŸ‡¼",
    "dial_code": "+263"
  },
  {
    "code": "AX",
    "name": "Ã…land Islands",
    "emoji": "ğŸ‡¦ğŸ‡½",
    "unicode": "U+1F1E6 U+1F1FD",
    "image": "https://cdn.jsdelivr.net/npm/country-flag-emoji-json@2.0.0/dist/images/AX.svg",
    "flag": "ğŸ‡¦ğŸ‡½",
    "dial_code": "+358"
  }
]